start=new Date('2021-10-21T00:00:00.000Z').valueOf();
sats=[{"DECAY_DATE":null,"INCLINATION":"53.0552","TLE_LINE2":"2 46348  53.0552 344.5722 0001381  71.8774 288.2365 15.06380982 63253","REF_FRAME":"TEME","OBJECT_ID":"2020-062Z","MEAN_MOTION":"15.06380982","PERIOD":"95.593","CENTER_NAME":"EARTH","ARG_OF_PERICENTER":"71.8774","SEMIMAJOR_AXIS":"6925.407","PERIAPSIS":"546.315","EPHEMERIS_TYPE":"0","GP_ID":"187715402","MEAN_MOTION_DOT":"-0.00003234","COUNTRY_CODE":"US","MEAN_ANOMALY":"288.2365","TLE_LINE1":"1 46348U 20062Z   21293.51357988 -.00003234  00000-0 -19843-3 0  9990","BSTAR":"-0.00019843000000","RCS_SIZE":"LARGE","TIME_SYSTEM":"UTC","LAUNCH_DATE":"2020-09-03","RA_OF_ASC_NODE":"344.5722","CLASSIFICATION_TYPE":"U","REV_AT_EPOCH":"6325","SITE":"AFETR","OBJECT_TYPE":"PAYLOAD","NORAD_CAT_ID":"46348","MEAN_ELEMENT_THEORY":"SGP4","FILE":"3174382","ELEMENT_SET_NO":"999","ECCENTRICITY":"0.00013810","MEAN_MOTION_DDOT":"0.0000000000000","APOAPSIS":"548.228","OBJECT_NAME":"STARLINK-1553","EPOCH":"2021-10-20T12:19:33.301632"},{"OBJECT_NAME":"STARLINK-1575","APOAPSIS":"548.076","EPOCH":"2021-10-20T10:39:22.164192","ELEMENT_SET_NO":"999","ECCENTRICITY":"0.00012010","MEAN_MOTION_DDOT":"0.0000000000000","FILE":"3174382","MEAN_ELEMENT_THEORY":"SGP4","OBJECT_TYPE":"PAYLOAD","NORAD_CAT_ID":"46349","SITE":"AFETR","REV_AT_EPOCH":"6359","CLASSIFICATION_TYPE":"U","TIME_SYSTEM":"UTC","LAUNCH_DATE":"2020-09-03","RA_OF_ASC_NODE":"319.7564","RCS_SIZE":"LARGE","BSTAR":"-0.00011685000000","TLE_LINE1":"1 46349U 20062AA  21293.44400653 -.00002021  00000-0 -11685-3 0  9990","MEAN_ANOMALY":"281.8112","COUNTRY_CODE":"US","MEAN_MOTION_DOT":"-0.00002021","PERIAPSIS":"546.413","GP_ID":"187715153","EPHEMERIS_TYPE":"0","SEMIMAJOR_AXIS":"6925.379","ARG_OF_PERICENTER":"78.3012","PERIOD":"95.593","CENTER_NAME":"EARTH","MEAN_MOTION":"15.06389926","OBJECT_ID":"2020-062AA","TLE_LINE2":"2 46349  53.0558 319.7564 0001201  78.3012 281.8112 15.06389926 63599","REF_FRAME":"TEME","DECAY_DATE":null,"INCLINATION":"53.0558"},{"BSTAR":"-0.00009803700000","RCS_SIZE":"LARGE","MEAN_ANOMALY":"264.9182","TLE_LINE1":"1 46350U 20062AB  21293.47486348 -.00001741  00000-0 -98037-4 0  9995","REV_AT_EPOCH":"6297","CLASSIFICATION_TYPE":"U","SITE":"AFETR","TIME_SYSTEM":"UTC","RA_OF_ASC_NODE":"4.7434","LAUNCH_DATE":"2020-09-03","MEAN_ELEMENT_THEORY":"SGP4","FILE":"3174382","OBJECT_TYPE":"PAYLOAD","NORAD_CAT_ID":"46350","ELEMENT_SET_NO":"999","MEAN_MOTION_DDOT":"0.0000000000000","ECCENTRICITY":"0.00011200","OBJECT_NAME":"STARLINK-1617","APOAPSIS":"547.996","EPOCH":"2021-10-20T11:23:48.204672","DECAY_DATE":null,"INCLINATION":"53.0558","TLE_LINE2":"2 46350  53.0558   4.7434 0001120  95.1934 264.9182 15.06397818 62977","REF_FRAME":"TEME","PERIOD":"95.592","CENTER_NAME":"EARTH","OBJECT_ID":"2020-062AB","MEAN_MOTION":"15.06397818","SEMIMAJOR_AXIS":"6925.355","ARG_OF_PERICENTER":"95.1934","MEAN_MOTION_DOT":"-0.00001741","COUNTRY_CODE":"US","PERIAPSIS":"546.445","GP_ID":"187716403","EPHEMERIS_TYPE":"0"},{"OBJECT_ID":"2020-062AC","MEAN_MOTION":"15.06394527","PERIOD":"95.592","CENTER_NAME":"EARTH","DECAY_DATE":null,"INCLINATION":"53.0542","TLE_LINE2":"2 46351  53.0542 344.7299 0001119  92.2809 267.8309 15.06394527 63253","REF_FRAME":"TEME","PERIAPSIS":"546.455","GP_ID":"187716155","EPHEMERIS_TYPE":"0","MEAN_MOTION_DOT":"-0.00002776","COUNTRY_CODE":"US","ARG_OF_PERICENTER":"92.2809","SEMIMAJOR_AXIS":"6925.365","TIME_SYSTEM":"UTC","LAUNCH_DATE":"2020-09-03","RA_OF_ASC_NODE":"344.7299","REV_AT_EPOCH":"6325","CLASSIFICATION_TYPE":"U","SITE":"AFETR","MEAN_ANOMALY":"267.8309","TLE_LINE1":"1 46351U 20062AC  21293.48040439 -.00002776  00000-0 -16757-3 0  9991","BSTAR":"-0.00016757000000","RCS_SIZE":"LARGE","ELEMENT_SET_NO":"999","MEAN_MOTION_DDOT":"0.0000000000000","ECCENTRICITY":"0.00011190","APOAPSIS":"548.005","OBJECT_NAME":"STARLINK-1646","EPOCH":"2021-10-20T11:31:46.939296","OBJECT_TYPE":"PAYLOAD","NORAD_CAT_ID":"46351","MEAN_ELEMENT_THEORY":"SGP4","FILE":"3174382"},{"FILE":"3175135","MEAN_ELEMENT_THEORY":"SGP4","OBJECT_TYPE":"PAYLOAD","NORAD_CAT_ID":"46352","OBJECT_NAME":"STARLINK-1653","APOAPSIS":"548.164","EPOCH":"2021-10-20T15:51:50.978016","ELEMENT_SET_NO":"999","MEAN_MOTION_DDOT":"0.0000000000000","ECCENTRICITY":"0.00013620","RCS_SIZE":"LARGE","BSTAR":"-0.00008215000000","TLE_LINE1":"1 46352U 20062AD  21293.66100669 -.00001505  00000-0 -82150-4 0  9994","MEAN_ANOMALY":"277.4059","SITE":"AFETR","CLASSIFICATION_TYPE":"U","REV_AT_EPOCH":"6328","TIME_SYSTEM":"UTC","RA_OF_ASC_NODE":"343.9119","LAUNCH_DATE":"2020-09-03","SEMIMAJOR_AXIS":"6925.355","ARG_OF_PERICENTER":"82.7085","COUNTRY_CODE":"US","MEAN_MOTION_DOT":"-0.00001505","PERIAPSIS":"546.277","GP_ID":"187755820","EPHEMERIS_TYPE":"0","TLE_LINE2":"2 46352  53.0553 343.9119 0001362  82.7085 277.4059 15.06397805 63282","REF_FRAME":"TEME","DECAY_DATE":null,"INCLINATION":"53.0553","PERIOD":"95.592","CENTER_NAME":"EARTH","MEAN_MOTION":"15.06397805","OBJECT_ID":"2020-062AD"},{"CLASSIFICATION_TYPE":"U","REV_AT_EPOCH":"6298","SITE":"AFETR","TIME_SYSTEM":"UTC","LAUNCH_DATE":"2020-09-03","RA_OF_ASC_NODE":"4.2245","BSTAR":"-0.00010015000000","RCS_SIZE":"LARGE","MEAN_ANOMALY":"254.9303","TLE_LINE1":"1 46353U 20062AE  21293.59282013 -.00001772  00000-0 -10015-3 0  9997","ELEMENT_SET_NO":"999","ECCENTRICITY":"0.00008850","MEAN_MOTION_DDOT":"0.0000000000000","OBJECT_NAME":"STARLINK-1656","APOAPSIS":"547.890","EPOCH":"2021-10-20T14:13:39.659232","MEAN_ELEMENT_THEORY":"SGP4","FILE":"3175135","OBJECT_TYPE":"PAYLOAD","NORAD_CAT_ID":"46353","PERIOD":"95.593","CENTER_NAME":"EARTH","OBJECT_ID":"2020-062AE","MEAN_MOTION":"15.06379422","DECAY_DATE":null,"INCLINATION":"53.0563","TLE_LINE2":"2 46353  53.0563   4.2245 0000885 105.1784 254.9303 15.06379422 62989","REF_FRAME":"TEME","MEAN_MOTION_DOT":"-0.00001772","COUNTRY_CODE":"US","PERIAPSIS":"546.664","EPHEMERIS_TYPE":"0","GP_ID":"187757072","SEMIMAJOR_AXIS":"6925.412","ARG_OF_PERICENTER":"105.1784"},{"DECAY_DATE":null,"INCLINATION":"53.0559","TLE_LINE2":"2 46354  53.0559   4.5653 0001241  95.6952 264.4178 15.06396553 62977","REF_FRAME":"TEME","OBJECT_ID":"2020-062AF","MEAN_MOTION":"15.06396553","CENTER_NAME":"EARTH","PERIOD":"95.592","ARG_OF_PERICENTER":"95.6952","SEMIMAJOR_AXIS":"6925.359","PERIAPSIS":"546.365","EPHEMERIS_TYPE":"0","GP_ID":"187715904","MEAN_MOTION_DOT":"-0.00001544","COUNTRY_CODE":"US","MEAN_ANOMALY":"264.4178","TLE_LINE1":"1 46354U 20062AF  21293.51542705 -.00001544  00000-0 -84826-4 0  9996","BSTAR":"-0.00008482600000","RCS_SIZE":"LARGE","TIME_SYSTEM":"UTC","RA_OF_ASC_NODE":"4.5653","LAUNCH_DATE":"2020-09-03","CLASSIFICATION_TYPE":"U","REV_AT_EPOCH":"6297","SITE":"AFETR","OBJECT_TYPE":"PAYLOAD","NORAD_CAT_ID":"46354","MEAN_ELEMENT_THEORY":"SGP4","FILE":"3174382","ELEMENT_SET_NO":"999","MEAN_MOTION_DDOT":"0.0000000000000","ECCENTRICITY":"0.00012410","APOAPSIS":"548.084","OBJECT_NAME":"STARLINK-1657","EPOCH":"2021-10-20T12:22:12.897120"},{"NORAD_CAT_ID":"46355","OBJECT_TYPE":"PAYLOAD","MEAN_ELEMENT_THEORY":"SGP4","FILE":"3174382","MEAN_MOTION_DDOT":"0.0000000000000","ECCENTRICITY":"0.00011530","ELEMENT_SET_NO":"999","EPOCH":"2021-10-20T13:20:34.467936","APOAPSIS":"548.001","OBJECT_NAME":"STARLINK-1661","MEAN_ANOMALY":"269.2900","TLE_LINE1":"1 46355U 20062AG  21293.55595449 -.00001427  00000-0 -76929-4 0  9999","BSTAR":"-0.00007692900000","RCS_SIZE":"LARGE","LAUNCH_DATE":"2020-09-03","RA_OF_ASC_NODE":"4.3872","TIME_SYSTEM":"UTC","CLASSIFICATION_TYPE":"U","REV_AT_EPOCH":"6298","SITE":"AFETR","ARG_OF_PERICENTER":"90.8221","SEMIMAJOR_AXIS":"6925.338","GP_ID":"187716655","EPHEMERIS_TYPE":"0","PERIAPSIS":"546.404","MEAN_MOTION_DOT":"-0.00001427","COUNTRY_CODE":"US","INCLINATION":"53.0561","DECAY_DATE":null,"REF_FRAME":"TEME","TLE_LINE2":"2 46355  53.0561   4.3872 0001153  90.8221 269.2900 15.06403474 62988","OBJECT_ID":"2020-062AG","MEAN_MOTION":"15.06403474","CENTER_NAME":"EARTH","PERIOD":"95.592"},{"GP_ID":"187715403","EPHEMERIS_TYPE":"0","PERIAPSIS":"546.344","MEAN_MOTION_DOT":"-0.00002141","COUNTRY_CODE":"US","ARG_OF_PERICENTER":"92.8135","SEMIMAJOR_AXIS":"6925.388","OBJECT_ID":"2020-062AH","MEAN_MOTION":"15.06387118","PERIOD":"95.593","CENTER_NAME":"EARTH","INCLINATION":"53.0547","DECAY_DATE":null,"REF_FRAME":"TEME","TLE_LINE2":"2 46356  53.0547   4.6484 0001312  92.8135 267.3004 15.06387118 62977","ECCENTRICITY":"0.00013120","MEAN_MOTION_DDOT":"0.0000000000000","ELEMENT_SET_NO":"999","EPOCH":"2021-10-20T12:00:58.149792","OBJECT_NAME":"STARLINK-1665","APOAPSIS":"548.162","NORAD_CAT_ID":"46356","OBJECT_TYPE":"PAYLOAD","MEAN_ELEMENT_THEORY":"SGP4","FILE":"3174382","RA_OF_ASC_NODE":"4.6484","LAUNCH_DATE":"2020-09-03","TIME_SYSTEM":"UTC","CLASSIFICATION_TYPE":"U","REV_AT_EPOCH":"6297","SITE":"AFETR","MEAN_ANOMALY":"267.3004","TLE_LINE1":"1 46356U 20062AH  21293.50067303 -.00002141  00000-0 -12490-3 0  9994","BSTAR":"-0.00012490000000","RCS_SIZE":"LARGE"},{"MEAN_ANOMALY":"269.8607","TLE_LINE1":"1 46357U 20062AJ  21293.56517195 -.00001701  00000-0 -95318-4 0  9992","BSTAR":"-0.00009531800000","RCS_SIZE":"LARGE","LAUNCH_DATE":"2020-09-03","RA_OF_ASC_NODE":"344.3561","TIME_SYSTEM":"UTC","CLASSIFICATION_TYPE":"U","REV_AT_EPOCH":"6326","SITE":"AFETR","NORAD_CAT_ID":"46357","OBJECT_TYPE":"PAYLOAD","MEAN_ELEMENT_THEORY":"SGP4","FILE":"3175135","ECCENTRICITY":"0.00012720","MEAN_MOTION_DDOT":"0.0000000000000","ELEMENT_SET_NO":"999","EPOCH":"2021-10-20T13:33:50.856480","APOAPSIS":"548.097","OBJECT_NAME":"STARLINK-1666","INCLINATION":"53.0563","DECAY_DATE":null,"REF_FRAME":"TEME","TLE_LINE2":"2 46357  53.0563 344.3561 0001272  90.2528 269.8607 15.06399313 63268","OBJECT_ID":"2020-062AJ","MEAN_MOTION":"15.06399313","PERIOD":"95.592","CENTER_NAME":"EARTH","ARG_OF_PERICENTER":"90.2528","SEMIMAJOR_AXIS":"6925.351","GP_ID":"187756572","EPHEMERIS_TYPE":"0","PERIAPSIS":"546.335","MEAN_MOTION_DOT":"-0.00001701","COUNTRY_CODE":"US"}];
